start=new Date('2021-12-24T00:00:00.000Z').valueOf();
sats=[{"EPHEMERIS_TYPE":"0","PERIOD":"95.592","REV_AT_EPOCH":"4289","TIME_SYSTEM":"UTC","ELEMENT_SET_NO":"999","PERIAPSIS":"546.227","MEAN_ELEMENT_THEORY":"SGP4","INCLINATION":"53.0531","LAUNCH_DATE":"2021-03-24","OBJECT_TYPE":"PAYLOAD","OBJECT_ID":"2021-024E","GP_ID":"192323905","OBJECT_NAME":"STARLINK-2303","BSTAR":"0.00055640000000","APOAPSIS":"548.158","RCS_SIZE":"LARGE","TLE_LINE1":"1 47981U 21024E   21357.63968721  .00008017  00000-0  55640-3 0  9997","CENTER_NAME":"EARTH","NORAD_CAT_ID":"47981","MEAN_MOTION_DDOT":"0.0000000000000","CLASSIFICATION_TYPE":"U","DECAY_DATE":null,"MEAN_MOTION_DOT":"0.00008017","ECCENTRICITY":"0.00013940","TLE_LINE2":"2 47981  53.0531  36.7164 0001394  70.3284 289.7855 15.06406994 42897","SITE":"AFETR","REF_FRAME":"TEME","RA_OF_ASC_NODE":"36.7164","SEMIMAJOR_AXIS":"6925.327","MEAN_ANOMALY":"289.7855","FILE":"3249421","MEAN_MOTION":"15.06406994","ARG_OF_PERICENTER":"70.3284","EPOCH":"2021-12-23T15:21:08.974944","COUNTRY_CODE":"US"},{"ELEMENT_SET_NO":"999","PERIOD":"95.694","EPHEMERIS_TYPE":"0","TIME_SYSTEM":"UTC","REV_AT_EPOCH":"359","LAUNCH_DATE":"2021-03-24","GP_ID":"192325151","OBJECT_ID":"2021-024F","OBJECT_TYPE":"PAYLOAD","PERIAPSIS":"550.620","INCLINATION":"53.0550","MEAN_ELEMENT_THEORY":"SGP4","OBJECT_NAME":"STARLINK-2317","BSTAR":"-0.00188170000000","CENTER_NAME":"EARTH","MEAN_MOTION_DDOT":"0.0000000000000","NORAD_CAT_ID":"47982","APOAPSIS":"553.643","RCS_SIZE":"LARGE","TLE_LINE1":"1 47982U 21024F   21357.91667824 -.00027021  00000-0 -18817-2 0  9991","TLE_LINE2":"2 47982  53.0550 325.3490 0002181  54.4958 168.4891 15.04796678  3590","DECAY_DATE":null,"CLASSIFICATION_TYPE":"U","ECCENTRICITY":"0.00021810","MEAN_MOTION_DOT":"-0.00027021","SITE":"AFETR","MEAN_MOTION":"15.04796678","FILE":"3249421","ARG_OF_PERICENTER":"54.4958","RA_OF_ASC_NODE":"325.3490","REF_FRAME":"TEME","SEMIMAJOR_AXIS":"6930.267","MEAN_ANOMALY":"168.4891","COUNTRY_CODE":"US","EPOCH":"2021-12-23T22:00:00.999936"},{"TLE_LINE1":"1 47983U 21024G   21357.91667824  .00045219  11879-4  15163-3 0  9991","RCS_SIZE":"LARGE","APOAPSIS":"300.947","MEAN_MOTION_DDOT":"0.0000118790000","NORAD_CAT_ID":"47983","CENTER_NAME":"EARTH","BSTAR":"0.00015163000000","OBJECT_NAME":"STARLINK-2289","INCLINATION":"53.0446","MEAN_ELEMENT_THEORY":"SGP4","PERIAPSIS":"298.637","GP_ID":"192300007","OBJECT_ID":"2021-024G","OBJECT_TYPE":"PAYLOAD","LAUNCH_DATE":"2021-03-24","TIME_SYSTEM":"UTC","REV_AT_EPOCH":"4406","PERIOD":"90.515","EPHEMERIS_TYPE":"0","ELEMENT_SET_NO":"999","EPOCH":"2021-12-23T22:00:00.999936","COUNTRY_CODE":"US","SEMIMAJOR_AXIS":"6677.927","MEAN_ANOMALY":"188.3114","RA_OF_ASC_NODE":"276.4151","REF_FRAME":"TEME","ARG_OF_PERICENTER":"133.7039","MEAN_MOTION":"15.90890351","FILE":"3249078","SITE":"AFETR","ECCENTRICITY":"0.00017300","MEAN_MOTION_DOT":"0.00045219","DECAY_DATE":null,"CLASSIFICATION_TYPE":"U","TLE_LINE2":"2 47983  53.0446 276.4151 0001730 133.7039 188.3114 15.90890351 44069"},{"REV_AT_EPOCH":"4402","TIME_SYSTEM":"UTC","EPHEMERIS_TYPE":"0","PERIOD":"90.508","ELEMENT_SET_NO":"999","MEAN_ELEMENT_THEORY":"SGP4","INCLINATION":"53.0409","PERIAPSIS":"298.017","OBJECT_ID":"2021-024H","OBJECT_TYPE":"PAYLOAD","GP_ID":"192299514","LAUNCH_DATE":"2021-03-24","BSTAR":"-0.00017715000000","OBJECT_NAME":"STARLINK-2316","TLE_LINE1":"1 47984U 21024H   21357.91667824 -.00060790  12177-4 -17715-3 0  9992","RCS_SIZE":"LARGE","APOAPSIS":"300.857","NORAD_CAT_ID":"47984","MEAN_MOTION_DDOT":"0.0000121770000","CENTER_NAME":"EARTH","MEAN_MOTION_DOT":"-0.00060790","ECCENTRICITY":"0.00021270","CLASSIFICATION_TYPE":"U","DECAY_DATE":null,"TLE_LINE2":"2 47984  53.0409 279.6759 0002127 158.0937 355.8074 15.91017221 44026","SITE":"AFETR","SEMIMAJOR_AXIS":"6677.572","MEAN_ANOMALY":"355.8074","REF_FRAME":"TEME","RA_OF_ASC_NODE":"279.6759","ARG_OF_PERICENTER":"158.0937","FILE":"3249078","MEAN_MOTION":"15.91017221","EPOCH":"2021-12-23T22:00:00.999936","COUNTRY_CODE":"US"},{"LAUNCH_DATE":"2021-03-24","OBJECT_TYPE":"PAYLOAD","OBJECT_ID":"2021-024J","GP_ID":"192324406","PERIAPSIS":"551.031","MEAN_ELEMENT_THEORY":"SGP4","INCLINATION":"53.0565","ELEMENT_SET_NO":"999","EPHEMERIS_TYPE":"0","PERIOD":"95.697","REV_AT_EPOCH":"360","TIME_SYSTEM":"UTC","CENTER_NAME":"EARTH","NORAD_CAT_ID":"47985","MEAN_MOTION_DDOT":"0.0000000000000","RCS_SIZE":"LARGE","APOAPSIS":"553.497","TLE_LINE1":"1 47985U 21024J   21357.91667824  .00030936  00000-0  21808-2 0  9995","OBJECT_NAME":"STARLINK-2308","BSTAR":"0.00218080000000","SITE":"AFETR","TLE_LINE2":"2 47985  53.0565 329.9730 0001779  66.8966  47.6658 15.04753754  3603","CLASSIFICATION_TYPE":"U","DECAY_DATE":null,"MEAN_MOTION_DOT":"0.00030936","ECCENTRICITY":"0.00017790","COUNTRY_CODE":"US","EPOCH":"2021-12-23T22:00:00.999936","FILE":"3249421","MEAN_MOTION":"15.04753754","ARG_OF_PERICENTER":"66.8966","RA_OF_ASC_NODE":"329.9730","REF_FRAME":"TEME","MEAN_ANOMALY":"47.6658","SEMIMAJOR_AXIS":"6930.399"},{"ELEMENT_SET_NO":"999","EPHEMERIS_TYPE":"0","PERIOD":"91.391","REV_AT_EPOCH":"4434","TIME_SYSTEM":"UTC","LAUNCH_DATE":"2021-03-24","OBJECT_TYPE":"PAYLOAD","OBJECT_ID":"2021-024K","GP_ID":"192299509","PERIAPSIS":"335.296","MEAN_ELEMENT_THEORY":"SGP4","INCLINATION":"53.0284","OBJECT_NAME":"STARLINK-2313","BSTAR":"0.00037881000000","CENTER_NAME":"EARTH","NORAD_CAT_ID":"47986","MEAN_MOTION_DDOT":"0.0000000000000","RCS_SIZE":"LARGE","APOAPSIS":"350.323","TLE_LINE1":"1 47986U 21024K   21357.91667824  .00059087  00000-0  37881-3 0  9993","TLE_LINE2":"2 47986  53.0284 275.5907 0011179 111.5838  19.9632 15.75641175 44346","CLASSIFICATION_TYPE":"U","DECAY_DATE":null,"MEAN_MOTION_DOT":"0.00059087","ECCENTRICITY":"0.00111790","SITE":"AFETR","FILE":"3249078","MEAN_MOTION":"15.75641175","ARG_OF_PERICENTER":"111.5838","RA_OF_ASC_NODE":"275.5907","REF_FRAME":"TEME","SEMIMAJOR_AXIS":"6720.944","MEAN_ANOMALY":"19.9632","COUNTRY_CODE":"US","EPOCH":"2021-12-23T22:00:00.999936"},{"MEAN_MOTION_DDOT":"0.0000000000000","NORAD_CAT_ID":"47988","CENTER_NAME":"EARTH","TLE_LINE1":"1 47988U 21024M   21357.42607343  .00085874  00000-0  45005-2 0  9990","RCS_SIZE":"MEDIUM","APOAPSIS":"521.927","BSTAR":"0.00450050000000","OBJECT_NAME":"STARLINK-2306","GP_ID":"192289067","OBJECT_TYPE":"PAYLOAD","OBJECT_ID":"2021-024M","LAUNCH_DATE":"2021-03-24","INCLINATION":"53.0560","MEAN_ELEMENT_THEORY":"SGP4","PERIAPSIS":"519.714","ELEMENT_SET_NO":"999","TIME_SYSTEM":"UTC","REV_AT_EPOCH":"4316","PERIOD":"95.046","EPHEMERIS_TYPE":"0","COUNTRY_CODE":"US","EPOCH":"2021-12-23T10:13:32.744352","ARG_OF_PERICENTER":"70.0774","MEAN_MOTION":"15.15052852","FILE":"3248538","MEAN_ANOMALY":"290.0392","SEMIMAJOR_AXIS":"6898.955","RA_OF_ASC_NODE":"11.5412","REF_FRAME":"TEME","SITE":"AFETR","TLE_LINE2":"2 47988  53.0560  11.5412 0001604  70.0774 290.0392 15.15052852 43160","ECCENTRICITY":"0.00016040","MEAN_MOTION_DOT":"0.00085874","DECAY_DATE":null,"CLASSIFICATION_TYPE":"U"},{"PERIAPSIS":"545.453","MEAN_ELEMENT_THEORY":"SGP4","INCLINATION":"53.0554","LAUNCH_DATE":"2021-03-24","GP_ID":"192299527","OBJECT_ID":"2021-024N","OBJECT_TYPE":"PAYLOAD","PERIOD":"95.590","EPHEMERIS_TYPE":"0","TIME_SYSTEM":"UTC","REV_AT_EPOCH":"4366","ELEMENT_SET_NO":"999","RCS_SIZE":"MEDIUM","APOAPSIS":"548.776","TLE_LINE1":"1 47989U 21024N   21357.91667824 -.00045890  00000-0 -30789-2 0  9994","CENTER_NAME":"EARTH","MEAN_MOTION_DDOT":"0.0000000000000","NORAD_CAT_ID":"47989","OBJECT_NAME":"STARLINK-2305","BSTAR":"-0.00307890000000","SITE":"AFETR","DECAY_DATE":null,"CLASSIFICATION_TYPE":"U","ECCENTRICITY":"0.00023990","MEAN_MOTION_DOT":"-0.00045890","TLE_LINE2":"2 47989  53.0554 305.4510 0002399  50.0001 173.1814 15.06432235 43663","EPOCH":"2021-12-23T22:00:00.999936","COUNTRY_CODE":"US","REF_FRAME":"TEME","RA_OF_ASC_NODE":"305.4510","MEAN_ANOMALY":"173.1814","SEMIMAJOR_AXIS":"6925.250","MEAN_MOTION":"15.06432235","FILE":"3249079","ARG_OF_PERICENTER":"50.0001"},{"TIME_SYSTEM":"UTC","REV_AT_EPOCH":"360","PERIOD":"95.592","EPHEMERIS_TYPE":"0","ELEMENT_SET_NO":"999","MEAN_ELEMENT_THEORY":"SGP4","INCLINATION":"53.0517","PERIAPSIS":"545.933","GP_ID":"192323906","OBJECT_ID":"2021-024P","OBJECT_TYPE":"PAYLOAD","LAUNCH_DATE":"2021-03-24","BSTAR":"0.00011656000000","OBJECT_NAME":"STARLINK-2307","TLE_LINE1":"1 47990U 21024P   21357.91667824  .00001455  00000-0  11656-3 0  9996","RCS_SIZE":"LARGE","APOAPSIS":"548.434","MEAN_MOTION_DDOT":"0.0000000000000","NORAD_CAT_ID":"47990","CENTER_NAME":"EARTH","ECCENTRICITY":"0.00018060","MEAN_MOTION_DOT":"0.00001455","DECAY_DATE":null,"CLASSIFICATION_TYPE":"U","TLE_LINE2":"2 47990  53.0517 305.4841 0001806  68.6172  49.4285 15.06409861  3603","SITE":"AFETR","MEAN_ANOMALY":"49.4285","SEMIMAJOR_AXIS":"6925.318","REF_FRAME":"TEME","RA_OF_ASC_NODE":"305.4841","ARG_OF_PERICENTER":"68.6172","MEAN_MOTION":"15.06409861","FILE":"3249421","EPOCH":"2021-12-23T22:00:00.999936","COUNTRY_CODE":"US"},{"OBJECT_NAME":"STARLINK-2279","BSTAR":"0.00084611000000","CENTER_NAME":"EARTH","NORAD_CAT_ID":"47991","MEAN_MOTION_DDOT":"0.0000000000000","APOAPSIS":"553.434","RCS_SIZE":"LARGE","TLE_LINE1":"1 47991U 21024Q   21357.91667824  .00011805  00000-0  84611-3 0  9998","ELEMENT_SET_NO":"999","EPHEMERIS_TYPE":"0","PERIOD":"95.696","REV_AT_EPOCH":"360","TIME_SYSTEM":"UTC","LAUNCH_DATE":"2021-03-24","OBJECT_ID":"2021-024Q","OBJECT_TYPE":"PAYLOAD","GP_ID":"192325152","PERIAPSIS":"551.001","INCLINATION":"53.0554","MEAN_ELEMENT_THEORY":"SGP4","FILE":"3249421","MEAN_MOTION":"15.04768709","ARG_OF_PERICENTER":"56.8563","RA_OF_ASC_NODE":"319.7605","REF_FRAME":"TEME","SEMIMAJOR_AXIS":"6930.353","MEAN_ANOMALY":"4.3651","COUNTRY_CODE":"US","EPOCH":"2021-12-23T22:00:00.999936","TLE_LINE2":"2 47991  53.0554 319.7605 0001755  56.8563   4.3651 15.04768709  3601","CLASSIFICATION_TYPE":"U","DECAY_DATE":null,"MEAN_MOTION_DOT":"0.00011805","ECCENTRICITY":"0.00017550","SITE":"AFETR"}];
